[{"OBJECT_NAME":"STARLINK-31842","OBJECT_ID":"2024-084U","EPOCH":"2026-03-09T07:22:46.745472","MEAN_MOTION":15.27578838,"ECCENTRICITY":0.00010905,"INCLINATION":43.0059,"RA_OF_ASC_NODE":40.5821,"ARG_OF_PERICENTER":258.4725,"MEAN_ANOMALY":101.6004,"EPHEMERIS_TYPE":0,"CLASSIFICATION_TYPE":"U","NORAD_CAT_ID":59672,"ELEMENT_SET_NO":999,"REV_AT_EPOCH":10435,"BSTAR":5.413736e-6,"MEAN_MOTION_DOT":-1.13e-6,"MEAN_MOTION_DDOT":0},{"OBJECT_NAME":"CZ-4B DEB","OBJECT_ID":"2017-034G","EPOCH":"2026-03-09T09:39:33.034752","MEAN_MOTION":14.99948696,"ECCENTRICITY":0.01166945,"INCLINATION":43.0793,"RA_OF_ASC_NODE":187.5221,"ARG_OF_PERICENTER":337.6416,"MEAN_ANOMALY":21.9365,"EPHEMERIS_TYPE":0,"CLASSIFICATION_TYPE":"U","NORAD_CAT_ID":43431,"ELEMENT_SET_NO":999,"REV_AT_EPOCH":46516,"BSTAR":0.0010902516,"MEAN_MOTION_DOT":0.00015701,"MEAN_MOTION_DDOT":0}]
